[{"OBJECT_NAME":"IRIDIUM 129","OBJECT_ID":"2017-061D","EPOCH":"2026-03-09T22:44:30.673536","MEAN_MOTION":14.34217481,"ECCENTRICITY":0.0002338,"INCLINATION":86.3914,"RA_OF_ASC_NODE":66.7388,"ARG_OF_PERICENTER":83.3381,"MEAN_ANOMALY":276.8081,"EPHEMERIS_TYPE":0,"CLASSIFICATION_TYPE":"U","NORAD_CAT_ID":42958,"ELEMENT_SET_NO":999,"REV_AT_EPOCH":44057,"BSTAR":-5.174136e-6,"MEAN_MOTION_DOT":5.0e-8,"MEAN_MOTION_DDOT":0},{"OBJECT_NAME":"CZ-6A DEB","OBJECT_ID":"2024-140NR","EPOCH":"2026-03-09T13:50:30.024960","MEAN_MOTION":14.28048152,"ECCENTRICITY":0.0032655,"INCLINATION":89.007,"RA_OF_ASC_NODE":286.0018,"ARG_OF_PERICENTER":110.3333,"MEAN_ANOMALY":250.1375,"EPHEMERIS_TYPE":0,"CLASSIFICATION_TYPE":"U","NORAD_CAT_ID":61099,"ELEMENT_SET_NO":999,"REV_AT_EPOCH":7954,"BSTAR":0.0013539,"MEAN_MOTION_DOT":3.394e-5,"MEAN_MOTION_DDOT":0}]
